03/31/2024 15:49:51
0 GOES 16,1 41866U 16071A   24091.47211542 -.00000242  00000-0  00000+0 0  9990,2 41866   0.0367 278.5590 0000816 129.4591 236.0556  1.00272645 26995
